[{"OBJECT_NAME":"KUIPER-00266","OBJECT_ID":"2026-030AB","EPOCH":"2026-03-29T00:00:01.999296","MEAN_MOTION":15.29847967,"ECCENTRICITY":0.0022915,"INCLINATION":51.8819,"RA_OF_ASC_NODE":127.505,"ARG_OF_PERICENTER":138.1418,"MEAN_ANOMALY":78.5593,"EPHEMERIS_TYPE":0,"CLASSIFICATION_TYPE":"U","NORAD_CAT_ID":67789,"ELEMENT_SET_NO":999,"REV_AT_EPOCH":520,"BSTAR":0.0018242,"MEAN_MOTION_DOT":0.00053929,"MEAN_MOTION_DDOT":0},{"OBJECT_NAME":"KUIPER-00268","OBJECT_ID":"2026-030AC","EPOCH":"2026-03-29T01:48:48.536928","MEAN_MOTION":15.36700137,"ECCENTRICITY":0.000408,"INCLINATION":51.8846,"RA_OF_ASC_NODE":125.5304,"ARG_OF_PERICENTER":95.294,"MEAN_ANOMALY":264.8512,"EPHEMERIS_TYPE":0,"CLASSIFICATION_TYPE":"U","NORAD_CAT_ID":67790,"ELEMENT_SET_NO":999,"REV_AT_EPOCH":807,"BSTAR":0.00082461,"MEAN_MOTION_DOT":0.00029755,"MEAN_MOTION_DDOT":0},{"OBJECT_NAME":"KUIPER-00270","OBJECT_ID":"2026-030AD","EPOCH":"2026-03-28T09:36:55.890432","MEAN_MOTION":15.35041666,"ECCENTRICITY":0.00112124,"INCLINATION":51.8814,"RA_OF_ASC_NODE":129.2251,"ARG_OF_PERICENTER":117.3981,"MEAN_ANOMALY":242.8147,"EPHEMERIS_TYPE":0,"CLASSIFICATION_TYPE":"U","NORAD_CAT_ID":67791,"ELEMENT_SET_NO":999,"REV_AT_EPOCH":796,"BSTAR":0.0010548498,"MEAN_MOTION_DOT":0.0003627,"MEAN_MOTION_DDOT":0},{"OBJECT_NAME":"KUIPER-00274","OBJECT_ID":"2026-030AE","EPOCH":"2026-03-29T02:13:30.882720","MEAN_MOTION":15.29177653,"ECCENTRICITY":0.0019498,"INCLINATION":51.8836,"RA_OF_ASC_NODE":127.0903,"ARG_OF_PERICENTER":130.7709,"MEAN_ANOMALY":229.497,"EPHEMERIS_TYPE":0,"CLASSIFICATION_TYPE":"U","NORAD_CAT_ID":67792,"ELEMENT_SET_NO":999,"REV_AT_EPOCH":805,"BSTAR":0.0009274,"MEAN_MOTION_DOT":0.00026517,"MEAN_MOTION_DDOT":0},{"OBJECT_NAME":"KUIPER-00275","OBJECT_ID":"2026-030AF","EPOCH":"2026-03-28T09:30:33.096096","MEAN_MOTION":15.35247943,"ECCENTRICITY":0.00104265,"INCLINATION":51.8852,"RA_OF_ASC_NODE":129.2171,"ARG_OF_PERICENTER":110.6861,"MEAN_ANOMALY":249.5243,"EPHEMERIS_TYPE":0,"CLASSIFICATION_TYPE":"U","NORAD_CAT_ID":67793,"ELEMENT_SET_NO":999,"REV_AT_EPOCH":796,"BSTAR":0.00089643252,"MEAN_MOTION_DOT":0.0003094,"MEAN_MOTION_DDOT":0},{"OBJECT_NAME":"KUIPER-00276","OBJECT_ID":"2026-030AG","EPOCH":"2026-03-28T19:55:08.876640","MEAN_MOTION":15.29439524,"ECCENTRICITY":0.00179341,"INCLINATION":51.8845,"RA_OF_ASC_NODE":128.3264,"ARG_OF_PERICENTER":126.6992,"MEAN_ANOMALY":233.5643,"EPHEMERIS_TYPE":0,"CLASSIFICATION_TYPE":"U","NORAD_CAT_ID":67794,"ELEMENT_SET_NO":999,"REV_AT_EPOCH":801,"BSTAR":0.00034729626,"MEAN_MOTION_DOT":9.75e-5,"MEAN_MOTION_DDOT":0},{"OBJECT_NAME":"KUIPER-00279","OBJECT_ID":"2026-030AH","EPOCH":"2026-03-29T02:17:53.733120","MEAN_MOTION":15.35953343,"ECCENTRICITY":0.0006544,"INCLINATION":51.8808,"RA_OF_ASC_NODE":125.6374,"ARG_OF_PERICENTER":101.748,"MEAN_ANOMALY":258.4241,"EPHEMERIS_TYPE":0,"CLASSIFICATION_TYPE":"U","NORAD_CAT_ID":67795,"ELEMENT_SET_NO":999,"REV_AT_EPOCH":807,"BSTAR":0.00047713,"MEAN_MOTION_DOT":0.00016617,"MEAN_MOTION_DDOT":0}]
