KUIPER-00266            
1 67789U 26030AB  26088.00002314  .00053929  00000+0  18242-2 0  9998
2 67789  51.8819 127.5050 0022915 138.1418  78.5593 15.29847967  5208
KUIPER-00268            
1 67790U 26030AC  26088.07556177  .00029755  00000+0  82461-3 0  9993
2 67790  51.8846 125.5304 0004080  95.2940 264.8512 15.36700137  8070
KUIPER-00270            
1 67791U 26030AD  26087.40064688  .00036270  00000+0  10548-2 0  9997
2 67791  51.8814 129.2251 0011212 117.3981 242.8147 15.35041666  7965
KUIPER-00274            
1 67792U 26030AE  26088.09271855  .00026517  00000+0  92740-3 0  9998
2 67792  51.8836 127.0903 0019498 130.7709 229.4970 15.29177653  8056
KUIPER-00275            
1 67793U 26030AF  26087.39621639  .00030940  00000+0  89643-3 0  9993
2 67793  51.8852 129.2171 0010426 110.6861 249.5243 15.35247943  7966
KUIPER-00276            
1 67794U 26030AG  26087.82996385  .00009750  00000+0  34730-3 0  9997
2 67794  51.8845 128.3264 0017934 126.6992 233.5643 15.29439524  8010
KUIPER-00279            
1 67795U 26030AH  26088.09576080  .00016617  00000+0  47713-3 0  9999
2 67795  51.8808 125.6374 0006544 101.7480 258.4241 15.35953343  8076
